NORAD_CAT_ID,OBJECT_NAME,OBJECT_TYPE,EPOCH,MEAN_MOTION,ECCENTRICITY,INCLINATION,RA_OF_ASC_NODE,ARG_OF_PERICENTER,MEAN_ANOMALY,BSTAR,MEAN_MOTION_DOT,MEAN_MOTION_DDOT,TLE_LINE0,TLE_LINE1,TLE_LINE2,SEMIMAJOR_AXIS,PERIOD,APOGEE,PERIGEE,DECAYED
53157.0,STARLINK-4093,PAYLOAD,2023-01-03 09:28:59,15.08852767,0.0002195999999999,53.2192,337.3715,38.9572,321.1578,0.00086594,0.00013525,0.0,0 STARLINK-4093,1 53157U 22083AB  23003.39512864  .00013525  00000-0  86594-3 0  9993,2 53157  53.2192 337.3715 0002196  38.9572 321.1578 15.08852767 26044,6917.840999999999,95.437,541.226,538.187,0.0
53157.0,STARLINK-4093,PAYLOAD,2023-01-04 02:58:13,15.0884831,0.0002089,53.2196,334.0999,41.4504,318.6646,0.0003625,5.487e-05,0.0,0 STARLINK-4093,1 53157U 22083AB  23004.12376877  .00005487  00000-0  36250-3 0  9999,2 53157  53.2196 334.0999 0002089  41.4504 318.6646 15.08848310 26788,6917.855,95.437,541.165,538.275,0.0
53157.0,STARLINK-4093,PAYLOAD,2023-01-04 09:19:45,15.08861783,0.0002082,53.2197,332.9104,40.8309,319.2839,0.00098373,0.00015412,0.0,0 STARLINK-4093,1 53157U 22083AB  23004.38872560  .00015412  00000-0  98373-3 0  9990,2 53157  53.2197 332.9104 0002082  40.8309 319.2839 15.08861783 26198,6917.814,95.436,541.119,538.239,0.0
53157.0,STARLINK-4093,PAYLOAD,2023-01-05 04:24:22,15.08873037,0.0002101,53.2199,329.3425,41.0663,319.0487,0.00070298,0.00010928,0.0,0 STARLINK-4093,1 53157U 22083AB  23005.18359278  .00010928  00000-0  70298-3 0  9998,2 53157  53.2199 329.3425 0002101  41.0663 319.0487 15.08873037 26949,6917.779,95.435,541.0980000000002,538.191,0.0
53157.0,STARLINK-4093,PAYLOAD,2023-01-05 05:59:45,15.08870346,0.00021,53.2198,329.0455,38.6724,321.4418,0.00041929,6.397e-05,0.0,0 STARLINK-4093,1 53157U 22083AB  23005.24983138  .00006397  00000-0  41929-3 0  9997,2 53157  53.2198 329.0455 0002100  38.6724 321.4418 15.08870346 26320,6917.788000000001,95.436,541.105,538.2,0.0
53157.0,STARLINK-4093,PAYLOAD,2023-01-05 13:56:40,15.08868682,0.0002223,53.2198,327.5585,40.9336,319.1823,0.00026299,3.903e-05,0.0,0 STARLINK-4093,1 53157U 22083AB  23005.58102463  .00003903  00000-0  26299-3 0  9991,2 53157  53.2198 327.5585 0002223  40.9336 319.1823 15.08868682 26377,6917.793000000002,95.436,541.196,538.12,0.0
53157.0,STARLINK-4093,PAYLOAD,2023-01-06 05:50:31,15.08838914,0.0002152,53.2199,324.5852,36.5315,323.5824,-0.00053702,-8.825e-05,0.0,0 STARLINK-4093,1 53157U 22083AB  23006.24342463 -.00008825  00000-0 -53702-3 0  9990,2 53157  53.2199 324.5852 0002152  36.5315 323.5824 15.08838914 27108,6917.884,95.438,541.237,538.26,0.0
53157.0,STARLINK-4093,PAYLOAD,2023-01-06 13:47:28,15.08824729,0.0001868,53.2195,323.0986,31.0639,329.0463,-0.00036622,-6.109e-05,0.0,0 STARLINK-4093,1 53157U 22083AB  23006.57463155 -.00006109  00000-0 -36622-3 0  9993,2 53157  53.2195 323.0986 0001868  31.0639 329.0463 15.08824729 27152,6917.927,95.439,541.0840000000002,538.5,0.0
53157.0,STARLINK-4093,PAYLOAD,2023-01-07 04:05:56,15.08840392,0.0001863,53.2185,320.4227,30.6515,329.4586,0.000386,5.861e-05,0.0,0 STARLINK-4093,1 53157U 22083AB  23007.17079430  .00005861  00000-0  38600-3 0  9999,2 53157  53.2185 320.4227 0001863  30.6515 329.4586 15.08840392 27247,6917.879,95.438,541.033,538.455,0.0
53157.0,STARLINK-4093,PAYLOAD,2023-01-07 05:41:19,15.08842941,0.0001853,53.2191,320.1251,30.486,329.624,0.0008921,0.00013939,0.0,0 STARLINK-4093,1 53157U 22083AB  23007.23703539  .00013939  00000-0  89210-3 0  9998,2 53157  53.2191 320.1251 0001853  30.4860 329.6240 15.08842941 26620,6917.871,95.437,541.018,538.455,0.0
53157.0,STARLINK-4093,PAYLOAD,2023-01-07 13:38:15,15.08832533,0.0002339,53.2196,318.638,41.2389,318.8779,0.00039751,6.043e-05,0.0,0 STARLINK-4093,1 53157U 22083AB  23007.56824033  .00006043  00000-0  39751-3 0  9990,2 53157  53.2196 318.6380 0002339  41.2389 318.8779 15.08832533 27305,6917.903,95.438,541.386,538.15,0.0
53157.0,STARLINK-4093,PAYLOAD,2023-01-08 05:32:07,15.08821873,0.0001544,53.2207,315.6676,28.381,331.7266,-1.6474000000000002e-05,-5.5e-06,0.0,0 STARLINK-4093,1 53157U 22083AB  23008.23064793 -.00000550  00000-0 -16474-4 0  9991,2 53157  53.2207 315.6676 0001544  28.3810 331.7266 15.08821873 27406,6917.936,95.439,540.869,538.7330000000002,0.0
53157.0,STARLINK-4093,PAYLOAD,2023-01-08 13:29:03,15.088437400000002,0.0002003,53.218,314.1782,41.0558,319.0585,0.00074198,0.00011542,0.0,0 STARLINK-4093,1 53157U 22083AB  23008.56184988  .00011542  00000-0  74198-3 0  9993,2 53157  53.2180 314.1782 0002003  41.0558 319.0585 15.08843740 26825,6917.8690000000015,95.437,541.12,538.3480000000002,0.0
53157.0,STARLINK-4093,PAYLOAD,2023-01-09 13:19:50,15.08848005,0.0001435,53.2193,309.7192,16.7276,343.3763,0.00040255,6.126e-05,0.0,0 STARLINK-4093,1 53157U 22083AB  23009.55544652  .00006126  00000-0  40255-3 0  9990,2 53157  53.2193 309.7192 0001435  16.7276 343.3763 15.08848005 27602,6917.856,95.437,540.714,538.7280000000002,0.0
53157.0,STARLINK-4093,PAYLOAD,2023-01-10 05:13:42,15.08842551,0.000213,53.2173,306.7455,43.7902,316.3259,0.00014173,1.968e-05,0.0,0 STARLINK-4093,1 53157U 22083AB  23010.21785181  .00001968  00000-0  14173-3 0  9998,2 53157  53.2173 306.7455 0002130  43.7902 316.3259 15.08842551 27709,6917.873000000001,95.437,541.211,538.264,0.0
53157.0,STARLINK-4093,PAYLOAD,2023-01-10 13:10:38,15.08841343,0.0002132,53.2177,305.2583,44.291,315.8252,9.9644e-05,1.298e-05,0.0,0 STARLINK-4093,1 53157U 22083AB  23010.54905247  .00001298  00000-0  99644-4 0  9994,2 53157  53.2177 305.2583 0002132  44.2910 315.8252 15.08841343 27127,6917.876,95.437,541.216,538.266,0.0
53157.0,STARLINK-4093,PAYLOAD,2023-01-11 01:53:43,15.08843039,0.000197,53.2208,302.8774,47.9908,312.1252,0.0001484,2.075e-05,0.0,0 STARLINK-4093,1 53157U 22083AB  23011.07897166  .00002075  00000-0  14840-3 0  9991,2 53157  53.2208 302.8774 0001970  47.9908 312.1252 15.08843039 27206,6917.871,95.437,541.099,538.373,0.0
53157.0,STARLINK-4093,PAYLOAD,2023-01-11 19:22:56,15.08861399,0.000164,53.2198,299.6059,51.874,308.24,0.00036622,5.549e-05,0.0,0 STARLINK-4093,1 53157U 22083AB  23011.80759738  .00005549  00000-0  36622-3 0  9995,2 53157  53.2198 299.6059 0001640  51.8740 308.2400 15.08861399 27946,6917.815,95.436,540.815,538.545,0.0
53157.0,STARLINK-4093,PAYLOAD,2023-01-12 01:44:29,15.08854283,0.0002131,53.2201,298.4211,45.7553,314.3614,0.000217,3.168e-05,0.0,0 STARLINK-4093,1 53157U 22083AB  23012.07255996  .00003168  00000-0  21700-3 0  9998,2 53157  53.2201 298.4211 0002131  45.7553 314.3614 15.08854283 27981,6917.837,95.437,541.1759999999998,538.2280000000002,0.0
53157.0,STARLINK-4093,PAYLOAD,2023-01-12 19:13:44,15.08828044,0.0002197,53.2186,295.1506,39.6737,320.4416,-0.00018651,-3.254e-05,0.0,0 STARLINK-4093,1 53157U 22083AB  23012.80121429 -.00003254  00000-0 -18651-3 0  9991,2 53157  53.2186 295.1506 0002197  39.6737 320.4416 15.08828044 28099,6917.917,95.438,541.302,538.262,0.0
53157.0,STARLINK-4093,PAYLOAD,2023-01-12 22:24:30,15.08832241,0.0001611,53.2195,294.5518,52.8385,307.2754,-0.00011224,-2.073e-05,0.0,0 STARLINK-4093,1 53157U 22083AB  23012.93369147 -.00002073  00000-0 -11224-3 0  9993,2 53157  53.2195 294.5518 0001611  52.8385 307.2754 15.08832241 27485,6917.904,95.438,540.884,538.655,0.0
53157.0,STARLINK-4093,PAYLOAD,2023-01-13 01:35:17,15.08837463,0.0001778,53.2191,293.9581,41.7891,318.3237,0.00019393,2.799e-05,0.0,0 STARLINK-4093,1 53157U 22083AB  23013.06617114  .00002799  00000-0  19393-3 0  9996,2 53157  53.2191 293.9581 0001778  41.7891 318.3237 15.08837463 28130,6917.888000000001,95.438,540.9830000000002,538.523,0.0
53157.0,STARLINK-4093,PAYLOAD,2023-01-13 11:07:36,15.08828949,0.0001868,53.2182,292.1755,45.1214,314.993,0.00014761,2.061e-05,0.0,0 STARLINK-4093,1 53157U 22083AB  23013.46361674  .00002061  00000-0  14761-3 0  9993,2 53157  53.2182 292.1755 0001868  45.1214 314.9930 15.08828949 28198,6917.914000000001,95.438,541.071,538.487,0.0
53157.0,STARLINK-4093,PAYLOAD,2023-01-13 19:04:32,15.08830582,0.0001851999999999,53.2181,290.6897,47.7498,312.3651,0.00011874,1.602e-05,0.0,0 STARLINK-4093,1 53157U 22083AB  23013.79481904  .00001602  00000-0  11874-3 0  9990,2 53157  53.2181 290.6897 0001852  47.7498 312.3651 15.08830582 27616,6917.909000000001,95.438,541.055,538.493,0.0
53157.0,STARLINK-4093,PAYLOAD,2023-01-14 03:01:27,15.08850399,0.0001946,53.2202,289.2043,58.3629,301.7553,0.00083692,0.0001306,0.0,0 STARLINK-4093,1 53157U 22083AB  23014.12601753  .00013060  00000-0  83692-3 0  9992,2 53157  53.2202 289.2043 0001946  58.3629 301.7553 15.08850399 28291,6917.849,95.437,541.06,538.367,0.0
53157.0,STARLINK-4093,PAYLOAD,2023-01-14 10:58:23,15.08840256,0.0002182,53.2182,287.7118,56.2546,303.8653,0.00050526,7.762e-05,0.0,0 STARLINK-4093,1 53157U 22083AB  23014.45722132  .00007762  00000-0  50526-3 0  9995,2 53157  53.2182 287.7118 0002182  56.2546 303.8653 15.08840256 28343,6917.88,95.438,541.254,538.235,0.0
53157.0,STARLINK-4093,PAYLOAD,2023-01-15 02:52:15,15.08848261,0.0002435,53.2168,284.7394,63.8449,296.2793,0.00055277,8.522e-05,0.0,0 STARLINK-4093,1 53157U 22083AB  23015.11962158  .00008522  00000-0  55277-3 0  9996,2 53157  53.2168 284.7394 0002435  63.8449 296.2793 15.08848261 27812,6917.855,95.437,541.405,538.036,0.0
53157.0,STARLINK-4093,PAYLOAD,2023-01-15 18:46:06,15.08836505,0.0001062,53.2187,281.769,79.6369,280.4743,0.00071497,0.00011108,0.0,0 STARLINK-4093,1 53157U 22083AB  23015.78202173  .00011108  00000-0  71497-3 0  9999,2 53157  53.2187 281.7690 0001062  79.6369 280.4743 15.08836505 28549,6917.891,95.438,540.491,539.021,0.0
53157.0,STARLINK-4093,PAYLOAD,2023-01-15 21:56:52,15.08851995,0.0001161,53.2186,281.1737,85.07,275.0424,0.0013767999999999,0.00021699,0.0,0 STARLINK-4093,1 53157U 22083AB  23015.91450040  .00021699  00000-0  13768-2 0  9994,2 53157  53.2186 281.1737 0001161  85.0700 275.0424 15.08851995 27932,6917.844,95.437,540.512,538.906,0.0
